NORAD_CAT_ID,OBJECT_NAME,OBJECT_TYPE,EPOCH,MEAN_MOTION,ECCENTRICITY,INCLINATION,RA_OF_ASC_NODE,ARG_OF_PERICENTER,MEAN_ANOMALY,BSTAR,MEAN_MOTION_DOT,MEAN_MOTION_DDOT,TLE_LINE0,TLE_LINE1,TLE_LINE2,SEMIMAJOR_AXIS,PERIOD,APOGEE,PERIGEE,DECAYED
55662.0,STARLINK-5479,PAYLOAD,2023-08-04 23:54:04,15.51233076,0.0003443,69.9978,37.7583,265.2794,94.7999,3.8912e-05,2.122e-05,0.0,0 STARLINK-5479,1 55662U 23021AL  23216.99588646  .00002122  00000-0  38912-4 0  9995,2 55662  69.9978  37.7583 0003443 265.2794  94.7999 15.51233076 26936,6791.262,92.829,415.465,410.789,0.0
55662.0,STARLINK-5479,PAYLOAD,2023-08-05 15:22:39,15.51223227,0.0003548,69.9982,35.9954,267.284,92.794,1.9562e-05,9.84e-06,0.0,0 STARLINK-5479,1 55662U 23021AL  23217.64073843  .00000984  00000-0  19562-4 0  9990,2 55662  69.9982  35.9954 0003548 267.2840  92.7940 15.51223227 27036,6791.291,92.83,415.565,410.746,0.0
55662.0,STARLINK-5479,PAYLOAD,2023-08-06 17:41:14,15.51229578,0.0003552,69.9984,32.9984,267.531,92.5469,1.9756e-05,9.96e-06,0.0,0 STARLINK-5479,1 55662U 23021AL  23218.73697005  .00000996  00000-0  19756-4 0  9991,2 55662  69.9984  32.9984 0003552 267.5310  92.5469 15.51229578 27206,6791.272,92.83,415.549,410.725,0.0
55662.0,STARLINK-5479,PAYLOAD,2023-08-07 18:26:57,15.51231577,0.0003566,69.9983,30.178,265.2256,94.8523,3.2193e-05,1.727e-05,0.0,0 STARLINK-5479,1 55662U 23021AL  23219.76871838  .00001727  00000-0  32193-4 0  9996,2 55662  69.9983  30.1780 0003566 265.2256  94.8523 15.51231577 27363,6791.266,92.829,415.553,410.709,0.0
55662.0,STARLINK-5479,PAYLOAD,2023-08-08 11:28:23,15.51225806,0.00036,69.9983,28.2386,268.4854,91.592,2.8242e-05,1.494e-05,0.0,0 STARLINK-5479,1 55662U 23021AL  23220.47805194  .00001494  00000-0  28242-4 0  9999,2 55662  69.9983  28.2386 0003600 268.4854  91.5920 15.51225806 27476,6791.283,92.83,415.593,410.703,0.0
55662.0,STARLINK-5479,PAYLOAD,2023-08-08 17:39:51,15.51194906,0.0004282,69.9986,27.5335,265.9316,94.138,-4.6026e-05,-2.865e-05,0.0,0 STARLINK-5479,1 55662U 23021AL  23220.73601687 -.00002865  00000-0 -46026-4 0  9994,2 55662  69.9986  27.5335 0004282 265.9316  94.1380 15.51194906 27517,6791.373,92.832,416.146,410.33,0.0
55662.0,STARLINK-5479,PAYLOAD,2023-08-09 09:09:27,15.50470646,0.0003901,69.9988,25.7735,264.6942,95.3799,-0.0016366,-0.00092683,0.0,0 STARLINK-5479,1 55662U 23021AL  23221.38156910 -.00092683  00000-0 -16366-2 0  9999,2 55662  69.9988  25.7735 0003901 264.6942  95.3799 15.50470646 27616,6793.488,92.875,418.003,412.703,0.0
55662.0,STARLINK-5479,PAYLOAD,2023-08-09 22:00:00,15.48682379,0.0003521,70.0009,24.3112,276.3716,189.2819,-0.01808,-0.00883512,0.0,0 STARLINK-5479,1 55662U 23021AL  23221.91667824 -.00883512  00000-0 -18080-1 0  9992,2 55662  70.0009  24.3112 0003521 276.3716 189.2819 15.48682379 27693,6798.717,92.982,422.975,418.188,0.0
55662.0,STARLINK-5479,PAYLOAD,2023-08-10 14:00:01,15.4740468,0.0003421,70.0009,22.4976,269.926,309.9009,-0.020322,-0.00956903,0.0,0 STARLINK-5479,1 55662U 23021AL  23222.58334491 -.00956903  00000-0 -20322-1 0  9994,2 55662  70.0009  22.4976 0003421 269.9260 309.9009 15.47404680 27790,6802.459,93.059,426.651,421.996,0.0
55662.0,STARLINK-5479,PAYLOAD,2023-08-11 06:00:00,15.46037499,0.0003466,70.0006,20.6871,269.7803,61.1091,-0.018512,-0.00829841,0.0,0 STARLINK-5479,1 55662U 23021AL  23223.25001157 -.00829841  00000-0 -18512-1 0  9997,2 55662  70.0006  20.6871 0003466 269.7803  61.1091 15.46037499 27901,6806.468,93.141,430.692,425.974,0.0
55662.0,STARLINK-5479,PAYLOAD,2023-08-11 14:00:01,15.45257409,0.0003541,70.001,19.7832,271.5453,113.7087,-0.0061663,-0.00283993,0.0,0 STARLINK-5479,1 55662U 23021AL  23223.58334491 -.00283993  00000-0 -61663-2 0  9991,2 55662  70.0010  19.7832 0003541 271.5453 113.7087 15.45257409 27956,6808.759,93.188,433.035,428.213,0.0
55662.0,STARLINK-5479,PAYLOAD,2023-08-11 22:00:01,15.44779775,0.0003404,70.0004,18.88,276.6755,162.1791,-0.021167,-0.00914011,0.0,0 STARLINK-5479,1 55662U 23021AL  23223.91668981 -.00914011  00000-0 -21167-1 0  9998,2 55662  70.0004  18.8800 0003404 276.6755 162.1791 15.44779775 28004,6810.162,93.217,434.345,429.709,0.0
55662.0,STARLINK-5479,PAYLOAD,2023-08-12 22:00:00,15.42830202,0.0003201,70.0005,16.1762,273.1367,321.6621,-0.023032,-0.00929443,0.0,0 STARLINK-5479,1 55662U 23021AL  23224.91667824 -.00929443  00000-0 -23032-1 0  9992,2 55662  70.0005  16.1762 0003201 273.1367 321.6621 15.42830202 28150,6815.898,93.335,439.945,435.581,0.0
55662.0,STARLINK-5479,PAYLOAD,2023-08-14 06:00:02,15.40176159,0.0003382,70.0008,12.5842,273.5356,158.4051,-0.023195,-0.00862058,0.0,0 STARLINK-5479,1 55662U 23021AL  23226.25002315 -.00862058  00000-0 -23195-1 0  9997,2 55662  70.0008  12.5842 0003382 273.5356 158.4051 15.40176159 28362,6823.726,93.496,447.899,443.283,0.0
55662.0,STARLINK-5479,PAYLOAD,2023-08-14 22:00:01,15.38904924,0.0003323,70.0006,10.7933,279.2922,246.4743,-0.02568,-0.00911009,0.0,0 STARLINK-5479,1 55662U 23021AL  23226.91668981 -.00911009  00000-0 -25680-1 0  9999,2 55662  70.0006  10.7933 0003323 279.2922 246.4743 15.38904924 28461,6827.483,93.573,451.617,447.08,0.0
55662.0,STARLINK-5479,PAYLOAD,2023-08-15 18:00:00,15.37263672,0.0003392,70.0014,8.5598,279.8462,178.7567,-0.026642,-0.00897011,0.0,0 STARLINK-5479,1 55662U 23021AL  23227.75001157 -.00897011  00000-0 -26642-1 0  9993,2 55662  70.0014   8.5598 0003392 279.8462 178.7567 15.37263672 28595,6832.342,93.673,456.525,451.889,0.0
55662.0,STARLINK-5479,PAYLOAD,2023-08-16 22:00:00,15.35001152,0.0003445,70.0013,5.442,280.0265,148.4082,-0.029736,-0.00928004,0.0,0 STARLINK-5479,1 55662U 23021AL  23228.91667824 -.00928004  00000-0 -29736-1 0  9995,2 55662  70.0013   5.4420 0003445 280.0265 148.4082 15.35001152 28775,6839.054,93.811,463.275,458.563,0.0
55662.0,STARLINK-5479,PAYLOAD,2023-08-18 06:00:02,15.32345919,0.0003232,70.0016,1.8924,271.9317,316.0894,-0.029449,-0.00850971,0.0,0 STARLINK-5479,1 55662U 23021AL  23230.25002315 -.00850971  00000-0 -29449-1 0  9991,2 55662  70.0016   1.8924 0003232 271.9317 316.0894 15.32345919 28973,6846.952,93.974,471.03,466.604,0.0
55662.0,STARLINK-5479,PAYLOAD,2023-08-18 22:00:00,15.31098369,0.000338,70.0014,0.123,278.9147,24.0896,-0.03442,-0.00947643,0.0,0 STARLINK-5479,1 55662U 23021AL  23230.91667824 -.00947643  00000-0 -34420-1 0  9994,2 55662  70.0014   0.1230 0003380 278.9147  24.0896 15.31098369 29089,6850.671,94.05,474.852,470.22,0.0
55662.0,STARLINK-5479,PAYLOAD,2023-08-19 14:00:01,15.29779779,0.000347,70.0018,358.3573,278.2713,96.7354,-0.03505,-0.0092799,0.0,0 STARLINK-5479,1 55662U 23021AL  23231.58335648 -.00927990  00000-0 -35050-1 0  9997,2 55662  70.0018 358.3573 0003470 278.2713  96.7354 15.29779779 29187,6854.607,94.131,478.851,474.094,0.0
55662.0,STARLINK-5479,PAYLOAD,2023-08-20 22:00:00,15.27188478,0.000328,70.0014,354.8358,278.4269,230.9866,-0.039154,-0.00967138,0.0,0 STARLINK-5479,1 55662U 23021AL  23232.91667824 -.00967138  00000-0 -39154-1 0  9996,2 55662  70.0014 354.8358 0003280 278.4269 230.9866 15.27188478 29382,6862.359,94.291,486.475,481.973,0.0
55662.0,STARLINK-5479,PAYLOAD,2023-08-21 14:00:01,15.258594,0.000334,70.0017,353.0803,274.3542,297.6149,-0.039113,-0.00930735,0.0,0 STARLINK-5479,1 55662U 23021AL  23233.58334491 -.00930735  00000-0 -39113-1 0  9999,2 55662  70.0017 353.0803 0003340 274.3542 297.6149 15.25859400 29480,6866.343,94.373,490.501,485.915,0.0
55662.0,STARLINK-5479,PAYLOAD,2023-08-22 22:00:00,15.2327224,0.0003462,70.0011,349.5793,275.9876,51.6755,-0.044041,-0.00966889,0.0,0 STARLINK-5479,1 55662U 23021AL  23234.91667824 -.00966889  00000-0 -44041-1 0  9991,2 55662  70.0011 349.5793 0003462 275.9876  51.6755 15.23272240 29697,6874.115,94.533,498.36,493.601,0.0
55662.0,STARLINK-5479,PAYLOAD,2023-08-23 14:00:01,15.21946385,0.0003462,70.0014,347.8341,275.4475,105.3826,-0.043988,-0.00931252,0.0,0 STARLINK-5479,1 55662U 23021AL  23235.58334491 -.00931252  00000-0 -43988-1 0  9991,2 55662  70.0014 347.8341 0003462 275.4475 105.3826 15.21946385 29793,6878.107,94.616,502.353,497.591,0.0
55662.0,STARLINK-5479,PAYLOAD,2023-08-24 22:00:00,15.19357423,0.0003263,70.0008,344.3538,276.9313,200.8191,-0.049291,-0.00964526,0.0,0 STARLINK-5479,1 55662U 23021AL  23236.91667824 -.00964526  00000-0 -49291-1 0  9991,2 55662  70.0008 344.3538 0003263 276.9313 200.8191 15.19357423 29996,6885.918,94.777,510.03,505.537,0.0
55662.0,STARLINK-5479,PAYLOAD,2023-08-25 14:00:01,15.18025446,0.0003293,70.0011,342.6188,275.3427,246.1885,-0.048634,-0.00919125,0.0,0 STARLINK-5479,1 55662U 23021AL  23237.58334491 -.00919125  00000-0 -48634-1 0  9991,2 55662  70.0011 342.6188 0003293 275.3427 246.1885 15.18025446 30096,6889.946,94.86,514.08,509.542,0.0
55662.0,STARLINK-5479,PAYLOAD,2023-08-26 00:00:02,15.17218276,0.0003322,70.0009,341.5361,271.853,5.506,-0.050957,-0.00939303,0.0,0 STARLINK-5479,1 55662U 23021AL  23238.00002315 -.00939303  00000-0 -50957-1 0  9997,2 55662  70.0009 341.5361 0003322 271.8530   5.5060 15.17218276  5877,6892.389,94.911,516.544,511.965,0.0
55662.0,STARLINK-5479,PAYLOAD,2023-08-26 14:00:01,15.16064469,0.0003282,70.0012,340.023,273.7414,307.58,-0.050985,-0.0091139,0.0,0 STARLINK-5479,1 55662U 23021AL  23238.58334491 -.00911390  00000-0 -50985-1 0  9990,2 55662  70.0012 340.0230 0003282 273.7414 307.5800 15.16064469 30245,6895.886,94.983,520.014,515.488,0.0
55662.0,STARLINK-5479,PAYLOAD,2023-08-27 00:00:00,15.15256536,0.0003362,70.001,338.9439,271.8173,62.3354,-0.053406,-0.00931384,0.0,0 STARLINK-5479,1 55662U 23021AL  23239.00001157 -.00931384  00000-0 -53406-1 0  9994,2 55662  70.0010 338.9439 0003362 271.8173  62.3354 15.15256536  5979,6898.337,95.033,522.521,517.883,0.0
55662.0,STARLINK-5479,PAYLOAD,2023-08-27 14:00:01,15.1410612,0.0003345,70.0014,337.4354,272.9089,1.1604,-0.053649,-0.0090744,0.0,0 STARLINK-5479,1 55662U 23021AL  23239.58334491 -.00907440  00000-0 -53649-1 0  9992,2 55662  70.0014 337.4354 0003345 272.9089   1.1604 15.14106120 30409,6901.831,95.106,526.004,521.387,0.0
